*******************************************************************************
 Revised: April 12, 2021             Mercury                            199 / 1

 PHYSICAL DATA (updated 2021-Apr-12):
  Vol. Mean Radius (km) =  2440+-1        Density (g cm^-3)     = 5.427
  Mass x10^23 (kg)      =     3.302       Volume (x10^10 km^3)  = 6.085  
  Sidereal rot. period  =    58.6463 d    Sid. rot. rate (rad/s)= 0.00000124001
  Mean solar day        =   175.9421 d    Core radius (km)      = ~1600 
  Geometric Albedo      =     0.106       Surface emissivity    = 0.77+-0.06
  GM (km^3/s^2)         = 22031.86855     Equatorial radius, Re = 2440 km
  GM 1-sigma (km^3/s^2) =                 Mass ratio (Sun/plnt) = 6023682
  Mom. of Inertia       =     0.33        Equ. gravity  m/s^2   = 3.701     
  Atmos. pressure (bar) = < 5x10^-15      Max. angular diam.    = 11.0"   
  Mean Temperature (K)  = 440             Visual mag. V(1,0)    = -0.42 
  Obliquity to orbit[1] =  2.11' +/- 0.1' Hill's sphere rad. Rp = 94.4 
  Sidereal orb. per.    =  0.2408467 y    Mean Orbit vel.  km/s = 47.362 
  Sidereal orb. per.    = 87.969257  d    Escape vel. km/s      =  4.435
                                 Perihelion  Aphelion    Mean
  Solar Constant (W/m^2)         14462       6278        9126
  Maximum Planetary IR (W/m^2)   12700       5500        8000
  Minimum Planetary IR (W/m^2)   6           6           6
*******************************************************************************


*******************************************************************************
Ephemeris / WWW_USER Sat May  7 16:21:58 2022 Pasadena, USA      / Horizons
*******************************************************************************
Target body name: Mercury (199)                   {source: DE441}
Center body name: Sun (10)                        {source: DE441}
Center-site name: BODY CENTER
*******************************************************************************
Start time      : A.D. 2312-Jan-01 00:00:00.0000 TDB
Stop  time      : A.D. 2312-Dec-31 00:00:00.0000 TDB
Step-size       : 1440 minutes
*******************************************************************************
Center geodetic : 0.00000000,0.00000000,0.0000000 {E-lon(deg),Lat(deg),Alt(km)}
Center cylindric: 0.00000000,0.00000000,0.0000000 {E-lon(deg),Dxy(km),Dz(km)}
Center radii    : 696000.0 x 696000.0 x 696000.0 k{Equator, meridian, pole}    
Keplerian GM    : 1.3271246207314793E+11 km^3/s^2
Output units    : KM-S, deg, Julian Day Number (Tp)
Output type     : GEOMETRIC osculating elements
Output format   : 10
Reference frame : Ecliptic of J2000.0
*******************************************************************************
JDTDB
   EC    QR   IN
   OM    W    Tp
   N     MA   TA
   A     AD   PR
*******************************************************************************
$$SOE
2565556.500000000 = A.D. 2312-Feb-27 00:00:00.0000 TDB 
 EC= 2.056889019655275E-01 QR= 4.599776956284101E+07 IN= 6.986346015051741E+00
 OM= 4.793823214680187E+01 W = 3.001436801382588E+01 Tp=  2565598.533863914199
 N = 4.736518866179138E-05 MA= 1.879826203175760E+02 TA= 1.853779629783947E+02
 A = 5.790901030674602E+07 AD= 6.982025105065103E+07 PR= 7.600518654545238E+06
2565557.500000000 = A.D. 2312-Feb-28 00:00:00.0000 TDB 
 EC= 2.056887701959319E-01 QR= 4.599778257261778E+07 IN= 6.986345577771021E+00
 OM= 4.793822945823644E+01 W = 3.001435353356260E+01 Tp=  2565598.533865600359
 N = 4.736518035323344E-05 MA= 1.920749951739219E+02 TA= 1.881430069603510E+02
 A = 5.790901707881431E+07 AD= 6.982025158501083E+07 PR= 7.600519987789388E+06
2565558.500000000 = A.D. 2312-Feb-29 00:00:00.0000 TDB 
 EC= 2.056886317506104E-01 QR= 4.599779636685079E+07 IN= 6.986345126990168E+00
 OM= 4.793822639678155E+01 W = 3.001433807920034E+01 Tp=  2565598.533867459744
 N = 4.736517143013217E-05 MA= 1.961673700106180E+02 TA= 1.909178498960712E+02
 A = 5.790902435178151E+07 AD= 6.982025233671224E+07 PR= 7.600521419647599E+06
2565559.500000000 = A.D. 2312-Mar-01 00:00:00.0000 TDB 
 EC= 2.056884872558078E-01 QR= 4.599781088655028E+07 IN= 6.986344667199075E+00
 OM= 4.793822295243887E+01 W = 3.001432151275196E+01 Tp=  2565598.533869412262
 N = 4.736516192758884E-05 MA= 2.002597448799551E+02 TA= 1.937058767895251E+02
 A = 5.790903209703805E+07 AD= 6.982025330752581E+07 PR= 7.600522944487400E+06
2565560.500000000 = A.D. 2312-Mar-02 00:00:00.0000 TDB 
 EC= 2.056883373634818E-01 QR= 4.599782607100837E+07 IN= 6.986344202992467E+00
 OM= 4.793821911814924E+01 W = 3.001430370965509E+01 Tp=  2565598.533871382009
 N = 4.736515188105841E-05 MA= 2.043521198243012E+02 TA= 1.965105289195279E+02
 A = 5.790904028568602E+07 AD= 6.982025450036366E+07 PR= 7.600524556619570E+06
2565561.500000000 = A.D. 2312-Mar-03 00:00:00.0000 TDB 
 EC= 2.056881827431665E-01 QR= 4.599784185837808E+07 IN= 6.986343739047968E+00
 OM= 4.793821488981831E+01 W = 3.001428455915166E+01 Tp=  2565598.533873298671
 N = 4.736514132618326E-05 MA= 2.084444948754391E+02 TA= 1.993353184682534E+02
 A = 5.790904888867477E+07 AD= 6.982025591897146E+07 PR= 7.600526250324802E+06
2565562.500000000 = A.D. 2312-Mar-04 00:00:00.0000 TDB 
 EC= 2.056880240741440E-01 QR= 4.599785818619510E+07 IN= 6.986343280105354E+00
 OM= 4.793821026634637E+01 W = 3.001426396452003E+01 Tp=  2565598.533875097986
 N = 4.736513029868718E-05 MA= 2.125368700539687E+02 TA= 2.021838433772841E+02
 A = 5.790905787688728E+07 AD= 6.982025756757948E+07 PR= 7.600528019870731E+06
2565563.500000000 = A.D. 2312-Mar-05 00:00:00.0000 TDB 
 EC= 2.056878620380171E-01 QR= 4.599787499182733E+07 IN= 6.986342830946756E+00
 OM= 4.793820524966642E+01 W = 3.001424184322458E+01 Tp=  2565598.533876721747
 N = 4.736511883434550E-05 MA= 2.166292453687104E+02 TA= 2.050598024456568E+02
 A = 5.790906722116447E+07 AD= 6.982025945050162E+07 PR= 7.600529859516704E+06
2565564.500000000 = A.D. 2312-Mar-06 00:00:00.0000 TDB 
 EC= 2.056876973117372E-01 QR= 4.599789221283563E+07 IN= 6.986342396377682E+00
 OM= 4.793819984479628E+01 W = 3.001421812706289E+01 Tp=  2565598.533878117334
 N = 4.736510696905151E-05 MA= 2.207216208160320E+02 TA= 2.079670106633386E+02
 A = 5.790907689225108E+07 AD= 6.982026157166654E+07 PR= 7.600531763503140E+06
2565565.500000000 = A.D. 2312-Mar-07 00:00:00.0000 TDB 
 EC= 2.056875305611318E-01 QR= 4.599790978722521E+07 IN= 6.986341981208384E+00
 OM= 4.793819405991155E+01 W = 3.001419276241481E+01 Tp=  2565598.533879237715
 N = 4.736509473900702E-05 MA= 2.248139963790032E+02 TA= 2.109094147456216E+02
 A = 5.790908686064040E+07 AD= 6.982026393405560E+07 PR= 7.600533726020942E+06
2565566.500000000 = A.D. 2312-Mar-08 00:00:00.0000 TDB 
 EC= 2.056873624349435E-01 QR= 4.599792765356405E+07 IN= 6.986341590234871E+00
 OM= 4.793818790644552E+01 W = 3.001416571072598E+01 Tp=  2565598.533880042844
 N = 4.736508218107255E-05 MA= 2.289063720262568E+02 TA= 2.138911087971904E+02
 A = 5.790909709628873E+07 AD= 6.982026653901340E+07 PR= 7.600535741155301E+06
2565567.500000000 = A.D. 2312-Mar-09 00:00:00.0000 TDB 
 EC= 2.056871935593403E-01 QR= 4.599794575093987E+07 IN= 6.986341228218878E+00
 OM= 4.793818139922638E+01 W = 3.001413694939203E+01 Tp=  2565598.533880498726
 N = 4.736506933332507E-05 MA= 2.329987477104127E+02 TA= 2.169163499867462E+02
 A = 5.790910756816083E+07 AD= 6.982026938538179E+07 PR= 7.600537802796195E+06
2565568.500000000 = A.D. 2312-Mar-10 00:00:00.0000 TDB 
 EC= 2.056870245327755E-01 QR= 4.599796401872383E+07 IN= 6.986340899865555E+00
 OM= 4.793817455666115E+01 W = 3.001410647325276E+01 Tp=  2565598.533880577423
 N = 4.736505623588249E-05 MA= 2.370911233658903E+02 TA= 2.199895740511475E+02
 A = 5.790911824355794E+07 AD= 6.982027246839204E+07 PR= 7.600539904506092E+06
2565569.500000000 = A.D. 2312-Mar-11 00:00:00.0000 TDB 
 EC= 2.056868559209963E-01 QR= 4.599798239610483E+07 IN= 6.986340609797086E+00
 OM= 4.793816740097631E+01 W = 3.001407429695129E+01 Tp=  2565598.533880257513
 N = 4.736504293206953E-05 MA= 2.411834989059104E+02 TA= 2.231154103684900E+02
 A = 5.790912908716740E+07 AD= 6.982027577822998E+07 PR= 7.600542039332855E+06
2565570.500000000 = A.D. 2312-Mar-12 00:00:00.0000 TDB 
 EC= 2.056866882518296E-01 QR= 4.599800082135796E+07 IN= 6.986340362520072E+00
 OM= 4.793815995852861E+01 W = 3.001404045845766E+01 Tp=  2565598.533879525494
 N = 4.736502947001392E-05 MA= 2.452758742184696E+02 TA= 2.262986962380934E+02
 A = 5.790914005976171E+07 AD= 6.982027929816547E+07 PR= 7.600544199553608E+06
2565571.500000000 = A.D. 2312-Mar-13 00:00:00.0000 TDB 
 EC= 2.056865220092111E-01 QR= 4.599801923081106E+07 IN= 6.986340162383399E+00
 OM= 4.793815226019498E+01 W = 3.001400502410296E+01 Tp=  2565598.533878373913
 N = 4.736501590477691E-05 MA= 2.493682491610644E+02 TA= 2.295444898769166E+02
 A = 5.790915111646193E+07 AD= 6.982028300211279E+07 PR= 7.600546376332851E+06
2565572.500000000 = A.D. 2312-Mar-14 00:00:00.0000 TDB 
 EC= 2.056863576256288E-01 QR= 4.599803755748759E+07 IN= 6.986340013522555E+00
 OM= 4.793814434185122E+01 W = 3.001396809547362E+01 Tp=  2565598.533876805101
 N = 4.736500230112502E-05 MA= 2.534606235539913E+02 TA= 2.328580814806412E+02
 A = 5.790916220447849E+07 AD= 6.982028685146940E+07 PR= 7.600548559277684E+06
2565573.500000000 = A.D. 2312-Mar-15 00:00:00.0000 TDB 
 EC= 2.056861954719557E-01 QR= 4.599805572941686E+07 IN= 6.986339919785004E+00
 OM= 4.793813624493830E+01 W = 3.001392981850696E+01 Tp=  2565598.533874830697
 N = 4.736498873704968E-05 MA= 2.575529971721270E+02 TA= 2.362450014970116E+02
 A = 5.790917326024243E+07 AD= 6.982029079106800E+07 PR= 7.600550735873015E+06
2565574.500000000 = A.D. 2312-Mar-16 00:00:00.0000 TDB 
 EC= 2.056860358432443E-01 QR= 4.599807366765244E+07 IN= 6.986339884630081E+00
 OM= 4.793812801710534E+01 W = 3.001389039498100E+01 Tp=  2565598.533872472588
 N = 4.736497530809838E-05 MA= 2.616453697353249E+02 TA= 2.397110250121766E+02
 A = 5.790918420587508E+07 AD= 6.982029474409772E+07 PR= 7.600552890786534E+06
